BATSU-CS1 (IRAZU)       
1 43468U 98067NR  20024.06089534  .00120820  16570-4  37371-3 0  9998
2 43468  51.6315 280.0515 0003945 167.1910 192.9197 15.91520429197569
CUBERRT                 
1 43546U 98067NU  20024.03468873  .00009290  00000-0  83834-4 0  9999
2 43546  51.6368 304.8970 0002821 243.0962 116.9747 15.68965095 87388
TEMPEST-D               
1 43547U 98067NV  20023.87826436  .00004341  00000-0  58178-4 0  9999
2 43547  51.6386 325.6602 0004527 221.2915 138.7737 15.60338819 86776
RAINCUBE                
1 43548U 98067NW  20023.43997240  .00018087  00000-0  16856-3 0  9992
2 43548  51.6360 315.9061 0003555 232.7833 127.2839 15.67418917 87318
HALOSAT                 
1 43549U 98067NX  20023.52424083  .00022610  00000-0  21069-3 0  9992
2 43549  51.6375 315.7597 0003454 236.3220 123.7447 15.67255255 86886
ENDUROSAT ONE           
1 43551U 98067NZ  20023.16635954  .00026962  00000-0  21802-3 0  9995
2 43551  51.6358 311.8344 0003151 245.2418 114.8252 15.70611855 87319
EQUISAT                 
1 43552U 98067PA  20023.22359964  .00020497  00000-0  18901-3 0  9990
2 43552  51.6381 316.0417 0003917 244.8231 115.2359 15.67583177 87226
AEROCUBE 12A            
1 43556U 18046C   20023.54296296  .00000212  00000-0  19849-4 0  9992
2 43556  51.6428  86.3979 0008763 131.0703 229.1036 15.29327226 85041
AEROCUBE 12B            
1 43557U 18046D   20023.58005652  .00001357  00000-0  59821-4 0  9996
2 43557  51.6428  86.6382 0008799 131.7275 228.4458 15.29118789 84998
UITMSAT-1               
1 43589U 98067PD  20024.05359177  .00020018  00000-0  17695-3 0  9996
2 43589  51.6346 311.7130 0003098 257.7895 102.2755 15.68646333 83092
MAYA-1                  
1 43590U 98067PE  20024.17414995  .00020056  00000-0  17720-3 0  9992
2 43590  51.6354 311.0261 0003174 258.3894 101.6747 15.68657040 83048
BHUTAN-1                
1 43591U 98067PF  20024.15603243  .00020519  00000-0  18061-3 0  9990
2 43591  51.6361 310.9515 0003301 259.1290 100.9335 15.68731903 83044
SIRIUSSAT-1             
1 43595U 98067PG  20023.83984549  .00018761  00000-0  17553-3 0  9990
2 43595  51.6353 315.5515 0002256 196.7899 163.3023 15.67294026 82134
SIRIUSSAT-2             
1 43596U 98067PH  20024.08368707  .00017830  00000-0  16781-3 0  9999
2 43596  51.6364 314.9909 0002654 199.5634 160.5261 15.67187071 82164
TANUSHA-3               
1 43597U 98067PJ  20023.16000949  .00033105  00000-0  25950-3 0  9990
2 43597  51.6335 313.9466 0001761 200.7710 159.3216 15.71245417 82090
SURFSAT                 
1 43614U 18070B   20024.12998381  .00001934  00000-0  50980-4 0  9996
2 43614  93.0346  94.4824 0015815 169.2575 190.9020 15.38495957 76135
CP7 (DAVE)              
1 43615U 18070C   20024.14941960  .00001914  00000-0  50613-4 0  9991
2 43615  93.0350  94.4875 0015963 168.7670 191.3943 15.38384840 76138
ELFIN-B                 
1 43616U 18070D   20023.45690125  .00003018  00000-0  77085-4 0  9998
2 43616  93.0315  94.1112 0016380 174.2150 185.9297 15.39408309 76050
ELFIN-A                 
1 43617U 18070E   20023.63485828  .00003125  00000-0  79498-4 0  9990
2 43617  93.0370  94.5751 0015863 169.9165 190.2411 15.39538742 76082
CUBEBEL-1 (BSUSAT-1)    
1 43666U 18083E   20024.15953572  .00000584  00000-0  32045-4 0  9995
2 43666  97.5036  51.9682 0016113 141.2293 292.2973 15.17966203 68572
DEBRISSAT-2             
1 43680U 98067PR  20023.82349823  .00047929  00000-0  31145-3 0  9995
2 43680  51.6351 307.1567 0001301 185.2596 174.8390 15.75465458 90971
CICERO 10               
1 43690U 18088A   20024.14365300  .00000922  00000-0  40826-4 0  9994
2 43690  85.0395 174.0355 0016898 119.3527 240.9404 15.19988872 66664
IRVINE01                
1 43693U 18088D   20023.84966087  .00002078  00000-0  88200-4 0  9994
2 43693  85.0369 173.3318 0020011 105.8555 254.4895 15.22238149 66698
PROXIMA I               
1 43694U 18088E   20023.44630189  .00000867  00000-0  36234-4 0  9996
2 43694  85.0338 173.3928 0021530  99.5086 260.8590 15.21725450 66640
PROXIMA II              
1 43696U 18088G   20023.44480879  .00000870  00000-0  36360-4 0  9991
2 43696  85.0339 173.3960 0021575  99.4584 260.9098 15.21729579 66639
FACSAT-1                
1 43721U 18096C   20024.13005532  .00001048  00000-0  42493-4 0  9997
2 43721  97.4372  98.4159 0016151 276.4202  83.5198 15.26816953 64217
CENTAURI-2              
1 43722U 18096D   20023.47911016  .00001549  00000-0  60720-4 0  9996
2 43722  97.4380  97.9213 0016209 279.1571  80.7834 15.27212739 64113
INNOSAT-2               
1 43738U 18096V   20024.13440832  .00001839  00000-0  66422-4 0  9997
2 43738  97.4389  99.9688 0022293 285.8979  73.9804 15.29592703 64310
SIRION PATHFINDER-2     
1 43759U 18099B   20024.16091401  .00000237  00000-0  26756-4 0  9997
2 43759  97.7229  98.1848 0013072 312.6262  47.3856 14.95220193 62219
CORVUS-BC 4             
1 43767U 18099K   20024.18189293 -.00000253  00000-0 -18041-4 0  9993
2 43767  97.7211  97.7720 0010755 317.2413  42.7969 14.94658701 62209
MOVE-II                 
1 43780U 18099Y   20023.44585089 -.00000068  00000-0 -93210-6 0  9996
2 43780  97.7230  97.3835 0012654 326.9433  33.0995 14.95258104 62090
SPACEBEE-7              
1 43816U 18099BL  20024.15082283  .00000718  00000-0  69862-4 0  9997
2 43816  97.7243  98.3778 0012051 307.9148  52.0983 14.95572998 61776
SPACEBEE-5              
1 43817U 18099BM  20024.15569363  .00001156  00000-0  10805-3 0  9996
2 43817  97.7282  98.6272 0011729 307.5679  52.4476 14.96021342 61783
SPACEBEE-6              
1 43818U 18099BN  20024.19739781  .00000392  00000-0  40419-4 0  9990
2 43818  97.7250  98.5009 0012134 306.7693  53.2414 14.95712305 61937
SHIELDS 1               
1 43850U 18104B   20024.03390267  .00000041  00000-0  00000+0 0  9996
2 43850  85.0280 271.4679 0012644 242.0136 117.9826 15.21256333 61367
STF-1                   
1 43852U 18104D   20023.17381669  .00000041  00000-0  00000+0 0  9998
2 43852  85.0329 272.4681 0012386 262.7011  97.2834 15.20978540 61214
ZACUBE-2                
1 43907U 18111AH  20024.13187721  .00000439  00000-0  20700-4 0  9992
2 43907  97.2784 288.1654 0020116 299.3885  60.5344 15.24424142 59870
LUME 1                  
1 43908U 18111AJ  20023.76436992  .00000812  00000-0  35508-4 0  9995
2 43908  97.2783 287.8955 0020001 300.7869  59.1400 15.24740031 59822
AOBA VELOX-IV           
1 43940U 19003J   20024.09103223  .00001134  00000-0  48621-4 0  9995
2 43940  97.2503  80.2353 0024673  21.6526  34.5739 15.24483680 56501
CATSAT-2                
1 44029U 98067PV  20024.11395291  .00012501  00000-0  15251-3 0  9994
2 44029  51.6398 330.2711 0003375 250.0250 110.0381 15.60880631 55790
DELPHINI                
1 44030U 98067PW  20023.55991709  .00013760  00000-0  16433-3 0  9990
2 44030  51.6371 332.5152 0003132 240.9794 119.0886 15.61339432 55685
UNITE                   
1 44031U 98067PX  20023.44267890  .00008071  00000-0  10946-3 0  9998
2 44031  51.6387 336.2620 0002418 235.0225 125.0541 15.58644064 55629
TECHEDSAT 8             
1 44032U 98067PY  20024.11863280  .00065590  00000-0  42994-3 0  9996
2 44032  51.6335 316.6907 0001625 171.2867 188.8161 15.75135114 55923
CATSAT-1                
1 44033U 98067PZ  20024.11380329  .00013252  00000-0  16133-3 0  9999
2 44033  51.6400 330.2737 0003246 249.1260 110.9386 15.60873301 55705
RAAVANA-1               
1 44329U 98067QE  20023.44897880  .00008613  00000-0  13254-3 0  9993
2 44329  51.6410 344.5807 0006558 169.8451 190.2674 15.55081231 34265
UGUISU                  
1 44330U 98067QF  20023.26236588  .00008439  00000-0  13027-3 0  9991
2 44330  51.6409 345.5828 0006555 167.7037 192.4115 15.55023213 34218
NEPALISAT-1             
1 44331U 98067QG  20024.15102091  .00008069  00000-0  12443-3 0  9992
2 44331  51.6409 341.0199 0006549 173.6122 186.4954 15.55123362 34361
SPOOQY-1                
1 44332U 98067QH  20024.14867802  .00007963  00000-0  12303-3 0  9997
2 44332  51.6408 341.0012 0005395 174.3784 185.7269 15.55098335 34323
SPACEBEE-9              
1 44370U 19037F   20023.87855004  .00005086  00000-0  12774-3 0  9995
2 44370  45.0165 208.3870 0013406  46.2504 313.9494 15.41216655 32121
SPACEBEE-8              
1 44371U 19037G   20023.86783499  .00009201  00000-0  20792-3 0  9995
2 44371  45.0193 206.6276 0012079  47.6846 312.5076 15.43509755 32133
IOD-1 GEMS              
1 44385U 98067QK  20024.15375652  .00011277  00000-0  16626-3 0  9998
2 44385  51.6419 341.0644 0003534 133.2445 226.8842 15.55908461 31832
MOVE-IIB                
1 44398U 19038N   20023.84098052  .00000954  00000-0  59032-4 0  9993
2 44398  97.5177 347.1348 0023772 269.4798  90.3709 15.11998673 30575
SONATE                  
1 44400U 19038Q   20024.11327896  .00000432  00000-0  28965-4 0  9991
2 44400  97.5202 347.4210 0023669 266.4131  93.4392 15.11810093 30618
LUCKY-7                 
1 44406U 19038W   20023.82171157  .00000453  00000-0  30029-4 0  9998
2 44406  97.5196 347.1910 0023158 267.3725  92.4855 15.12035306 30566
BEESAT 9                
1 44412U 19038AC  20023.82500367  .00000671  00000-0  42652-4 0  9991
2 44412  97.5191 347.1786 0021266 273.7135  86.1664 15.12052377 30265
JAISAT-1                
1 44419U 19038F   20024.15636127  .00000626  00000-0  39569-4 0  9992
2 44419  97.5194 347.6595 0020141 272.0129  87.8795 15.12535389 30637
SWIATOWID               
1 44426U 98067QL  20024.10730880  .00010701  00000-0  15699-3 0  9997
2 44426  51.6442 341.2748 0004475 125.0732 339.6338 15.56106066 31840
KRAKSAT                 
1 44427U 98067QM  20024.14947128  .00005953  00000-0  98005-4 0  9993
2 44427  51.6425 342.5286 0004273 126.7940 233.3443 15.53864725 31878
VCC A                   
1 44428U 98067QN  20024.15987355  .00007732  00000-0  12193-3 0  9991
2 44428  51.6426 341.8511 0003375 141.7256 218.3975 15.54580360 31887
